{"type": "FeatureCollection", "bbox": [16.34538, 48.19255, 16.40567, 48.25577], "features": [
{"geometry": {"coordinates": [[16.36674, 48.23643], [16.36847, 48.23902], [16.37173, 48.24021], [16.37735, 48.24127], [16.37739, 48.2361]], "type": "LineString"}, "properties": {"id": 2, "priority": "0", "stress": "0", "unpaved": "yes"}, "type": "Feature"},
{"geometry": {"coordinates": [[16.3478, 48.21889], [16.34987, 48.21885]], "type": "LineString"}, "properties": {"id": 3}, "type": "Feature"},
{"geometry": {"coordinates": [[16.36182, 48.19695], [16.36551, 48.19313], [16.37047, 48.19255], [16.37247, 48.19662]], "type": "LineString"}, "properties": {"id": 4, "oneway": "yes", "priority": "2", "stress": "0"}, "type": "Feature"},
{"geometry": {"coordinates": [16.37243, 48.20179], "type": "Point"}, "properties": {"id": 5, "oneway": "yes"}, "type": "Feature"},
{"geometry": {"coordinates": [[16.3675, 48.25094], [16.36923, 48.25352], [16.37249, 48.25471], [16.37811, 48.25577], [16.37814, 48.2506]], "type": "LineString"}, "properties": {"fixme": "yes", "id": 6, "priority": "0", "stress": "0"}, "type": "Feature"},
{"geometry": {"coordinates": [[16.37939, 48.20832], [16.38307, 48.20451], [16.38803, 48.20392], [16.39003, 48.20799]], "type": "LineString"}, "properties": {"id": 7, "priority": "2", "stress": "1"}, "type": "Feature"},
{"geometry": {"coordinates": [16.39871, 48.20484], "type": "Point"}, "properties": {"id": 8, "stress": "2"}, "type": "Feature"},
{"geometry": {"coordinates": [16.34867, 48.22775], "type": "Point"}, "properties": {"dismount": "yes", "id": 9}, "type": "Feature"},
{"geometry": {"coordinates": [16.39503, 48.20866], "type": "Point"}, "properties": {"id": 10, "stress": "2"}, "type": "Feature"},
{"geometry": {"coordinates": [[16.34538, 48.23715], [16.35603, 48.23682]], "type": "LineString"}, "properties": {"id": 11, "priority": "1", "stress": "4"}, "type": "Feature"},
{"geometry": {"coordinates": [[16.34617, 48.24934], [16.35681, 48.249]], "type": "LineString"}, "properties": {"id": 12, "priority": "1", "streessessess": "1"}, "type": "Feature"},
{"geometry": {"coordinates": [[16.34584, 48.20991], [16.34757, 48.2125], [16.35082, 48.21369], [16.35644, 48.21475], [16.35648, 48.20958]], "type": "LineString"}, "properties": {"id": 13, "priority": "0", "stress": "0"}, "type": "Feature"},
{"geometry": {"coordinates": [16.36182, 48.19695], "type": "Point"}, "properties": {"id": 14, "oneway": "yes"}, "type": "Feature"},
{"geometry": {"coordinates": [16.3483, 48.22417], "type": "Point"}, "properties": {"id": 15, "speed100": "yes"}, "type": "Feature"},
{"geometry": {"coordinates": [16.36681, 48.20073], "type": "Point"}, "properties": {"id": 16, "oneway": "yes"}, "type": "Feature"},
{"geometry": {"coordinates": [16.35154, 48.22418], "type": "Point"}, "properties": {"id": 17, "speed100": "yess"}, "type": "Feature"},
{"geometry": {"coordinates": [[16.39503, 48.20866], [16.39675, 48.21124], [16.40001, 48.21243], [16.40563, 48.2135], [16.40567, 48.20832]], "type": "LineString"}, "properties": {"id": 18, "priority": "0", "stress": "2"}, "type": "Feature"},
{"geometry": {"coordinates": [16.37047, 48.19255], "type": "Point"}, "properties": {"id": 19, "oneway": "yes"}, "type": "Feature"},
{"geometry": {"coordinates": [[16.39503, 48.20866], [16.39871, 48.20484], [16.40367, 48.20425], [16.40567, 48.20832]], "type": "LineString"}, "properties": {"id": 20, "priority": "2", "stress": "2"}, "type": "Feature"},
{"geometry": {"coordinates": [16.36355, 48.19954], "type": "Point"}, "properties": {"id": 21, "oneway": "yes"}, "type": "Feature"},
{"geometry": {"coordinates": [16.3517, 48.22572], "type": "Point"}, "properties": {"id": 22, "nocargo": "yess"}, "type": "Feature"},
{"geometry": {"coordinates": [[16.36182, 48.19695], [16.36355, 48.19954], [16.36681, 48.20073], [16.37243, 48.20179], [16.37247, 48.19662]], "type": "LineString"}, "properties": {"id": 23, "oneway": "yes", "priority": "0", "stress": "0"}, "type": "Feature"},
{"geometry": {"coordinates": [16.40567, 48.20832], "type": "Point"}, "properties": {"id": 24, "stress": "2"}, "type": "Feature"},
{"geometry": {"coordinates": [[16.3675, 48.25094], [16.37119, 48.24712], [16.37615, 48.24654], [16.37814, 48.2506]], "type": "LineString"}, "properties": {"fixme": "yes", "id": 25, "priority": "2", "stress": "0"}, "type": "Feature"},
{"geometry": {"coordinates": [[16.36474, 48.22215], [16.36843, 48.21833], [16.37339, 48.21775], [16.37539, 48.22182]], "type": "LineString"}, "properties": {"id": 26, "priority": "2", "steep": "yes", "stress": "0"}, "type": "Feature"},
{"geometry": {"coordinates": [16.35648, 48.20958], "type": "Point"}, "properties": {"id": 27, "nocargo": "yes", "priority": "1"}, "type": "Feature"},
{"geometry": {"coordinates": [[16.36326, 48.209], [16.36695, 48.20519], [16.37191, 48.2046], [16.37391, 48.20867]], "type": "LineString"}, "properties": {"id": 28, "priority": "2", "stress": "0"}, "type": "Feature"},
{"geometry": {"coordinates": [16.40367, 48.20425], "type": "Point"}, "properties": {"id": 29, "stress": "2"}, "type": "Feature"},
{"geometry": {"coordinates": [[16.34617, 48.24934], [16.3479, 48.25192], [16.35115, 48.25311], [16.35677, 48.25417], [16.35681, 48.249]], "type": "LineString"}, "properties": {"id": 30, "priorioio": "1", "stress": "0"}, "type": "Feature"},
{"geometry": {"coordinates": [[16.37939, 48.20832], [16.38111, 48.21091], [16.38437, 48.2121], [16.38999, 48.21316], [16.39003, 48.20799]], "type": "LineString"}, "properties": {"id": 31, "priority": "0", "stress": "1"}, "type": "Feature"},
{"geometry": {"coordinates": [[16.36474, 48.22215], [16.37539, 48.22182]], "type": "LineString"}, "properties": {"id": 32, "priority": "1", "steep": "yes", "stress": "0"}, "type": "Feature"},
{"geometry": {"coordinates": [16.35144, 48.22049], "type": "Point"}, "properties": {"id": 33, "swimming": "yess"}, "type": "Feature"},
{"geometry": {"coordinates": [16.40563, 48.2135], "type": "Point"}, "properties": {"id": 34, "priority": "0", "speed100": "yes", "stress": "2"}, "type": "Feature"},
{"geometry": {"coordinates": [[16.34584, 48.20991], [16.34953, 48.20609], [16.35448, 48.20551], [16.35648, 48.20958]], "type": "LineString"}, "properties": {"id": 35, "priority": "2", "stress": "0"}, "type": "Feature"},
{"geometry": {"coordinates": [16.40001, 48.21243], "type": "Point"}, "properties": {"id": 36, "stress": "2"}, "type": "Feature"},
{"geometry": {"coordinates": [[16.34538, 48.23715], [16.34711, 48.23973], [16.35037, 48.24092], [16.35599, 48.24199], [16.35603, 48.23682]], "type": "LineString"}, "properties": {"id": 37, "priority": "null", "stress": "0"}, "type": "Feature"},
{"geometry": {"coordinates": [16.34584, 48.20991], "type": "Point"}, "properties": {"description": "Beschreibung hier", "dismount": "yes", "id": 38, "priority": "0"}, "type": "Feature"},
{"geometry": {"coordinates": [16.37247, 48.19662], "type": "Point"}, "properties": {"id": 39, "oneway": "yes"}, "type": "Feature"},
{"geometry": {"coordinates": [16.36195, 48.21312], "type": "Point"}, "properties": {"id": 40, "priority": "0", "swimming": "yes"}, "type": "Feature"},
{"geometry": {"coordinates": [[16.37939, 48.20832], [16.39003, 48.20799]], "type": "LineString"}, "properties": {"id": 41, "priority": "1", "stress": "1"}, "type": "Feature"},
{"geometry": {"coordinates": [16.36551, 48.19313], "type": "Point"}, "properties": {"id": 42, "oneway": "yes"}, "type": "Feature"},
{"geometry": {"coordinates": [16.34825, 48.22047], "type": "Point"}, "properties": {"id": 43, "swimming": "yes"}, "type": "Feature"},
{"geometry": {"coordinates": [16.35154, 48.22237], "type": "Point"}, "properties": {"id": 44, "warning": "yess"}, "type": "Feature"},
{"geometry": {"coordinates": [[16.36326, 48.209], [16.37391, 48.20867]], "type": "LineString"}, "properties": {"id": 45, "priority": "1", "stress": "0"}, "type": "Feature"},
{"geometry": {"coordinates": [[16.36326, 48.209], [16.36499, 48.21159], [16.36825, 48.21278], [16.37387, 48.21384], [16.37391, 48.20867]], "type": "LineString"}, "properties": {"id": 46, "priority": "0", "stress": "0"}, "type": "Feature"},
{"geometry": {"coordinates": [[16.36674, 48.23643], [16.37739, 48.2361]], "type": "LineString"}, "properties": {"id": 47, "priority": "1", "stress": "0", "unpaved": "yes"}, "type": "Feature"},
{"geometry": {"coordinates": [16.39675, 48.21124], "type": "Point"}, "properties": {"id": 48, "stress": "2"}, "type": "Feature"},
{"geometry": {"coordinates": [[16.3675, 48.25094], [16.37814, 48.2506]], "type": "LineString"}, "properties": {"fixme": "yes", "id": 49, "priority": "1", "stress": "0"}, "type": "Feature"},
{"geometry": {"coordinates": [16.3483, 48.22235], "type": "Point"}, "properties": {"id": 50, "warning": "yes"}, "type": "Feature"},
{"geometry": {"coordinates": [[16.34538, 48.23715], [16.34907, 48.23333], [16.35403, 48.23275], [16.35603, 48.23682]], "type": "LineString"}, "properties": {"id": 51, "note": "no wrong priority/stress tags, should not be highlighted"}, "type": "Feature"},
{"geometry": {"coordinates": [[16.36674, 48.23643], [16.37043, 48.23262], [16.37539, 48.23203], [16.37739, 48.2361]], "type": "LineString"}, "properties": {"id": 52, "priority": "2", "stress": "0", "unpaved": "yes"}, "type": "Feature"},
{"geometry": {"coordinates": [[16.34617, 48.24934], [16.34986, 48.24552], [16.35481, 48.24493], [16.35681, 48.249]], "type": "LineString"}, "properties": {"id": 53, "note": "no wrong priority/stress tags, should not be highlighted"}, "type": "Feature"},
{"geometry": {"coordinates": [[16.34584, 48.20991], [16.35648, 48.20958]], "type": "LineString"}, "properties": {"id": 54, "priority": "1", "stress": "0"}, "type": "Feature"},
{"geometry": {"coordinates": [16.34846, 48.2257], "type": "Point"}, "properties": {"id": 55, "nocargo": "yes"}, "type": "Feature"},
{"geometry": {"coordinates": [[16.39503, 48.20866], [16.40567, 48.20832]], "type": "LineString"}, "properties": {"id": 56, "priority": "1", "stress": "2"}, "type": "Feature"},
{"geometry": {"coordinates": [[16.36182, 48.19695], [16.37247, 48.19662]], "type": "LineString"}, "properties": {"id": 57, "oneway": "yes", "priority": "1", "stress": "0"}, "type": "Feature"},
{"geometry": {"coordinates": [16.35448, 48.20551], "type": "Point"}, "properties": {"id": 58, "priority": "2", "warning": "yes"}, "type": "Feature"},
{"geometry": {"coordinates": [16.35191, 48.22777], "type": "Point"}, "properties": {"dismount": "yess", "id": 59}, "type": "Feature"},
{"geometry": {"coordinates": [[16.36474, 48.22215], [16.36647, 48.22474], [16.36973, 48.22593], [16.37535, 48.22699], [16.37539, 48.22182]], "type": "LineString"}, "properties": {"id": 60, "priority": "0", "steep": "yes", "stress": "0"}, "type": "Feature"}]}