{"type": "FeatureCollection", "bbox": [15.55258, 48.37505, 15.69252, 48.43648], "features": [
{"geometry": {"coordinates": [[15.57941, 48.39287], [15.57897, 48.39285], [15.57872, 48.39287], [15.57856, 48.39297], [15.57835, 48.39319], [15.57821, 48.39337], [15.57801, 48.39365], [15.57789, 48.39375], [15.57765, 48.3938], [15.5774, 48.39378], [15.577, 48.3937], [15.57656, 48.39363]], "type": "LineString"}, "properties": {"id": 2, "priority": "0", "stress": "1"}, "type": "Feature"},
{"geometry": {"coordinates": [[15.62286, 48.40768], [15.62297, 48.40769], [15.6233, 48.40769], [15.62336, 48.40769], [15.62347, 48.4078], [15.62346, 48.40787], [15.62345, 48.40793], [15.62339, 48.40808], [15.6234, 48.40819], [15.62344, 48.40826], [15.62348, 48.40833], [15.62358, 48.40842], [15.62368, 48.40849], [15.62378, 48.40853], [15.62386, 48.40856], [15.62393, 48.40857], [15.62403, 48.40858], [15.62417, 48.40858], [15.62433, 48.40855], [15.62442, 48.40851], [15.62454, 48.40845], [15.62467, 48.40835], [15.62472, 48.40826], [15.62479, 48.40811], [15.62482, 48.40798], [15.62482, 48.40788], [15.62483, 48.40781], [15.62484, 48.40754], [15.62484, 48.40729], [15.62484, 48.40713], [15.62483, 48.40667], [15.62484, 48.40619], [15.62482, 48.40556], [15.62478, 48.4046], [15.62476, 48.40375], [15.62473, 48.4028], [15.62471, 48.402], [15.6247, 48.40151], [15.62469, 48.40121], [15.62468, 48.40102], [15.62465, 48.40069], [15.62463, 48.40038], [15.6246, 48.40006], [15.62457, 48.39985], [15.62454, 48.3997], [15.62451, 48.39953], [15.62447, 48.3994], [15.62439, 48.39919], [15.62433, 48.39908], [15.62424, 48.39895], [15.62413, 48.39882], [15.62399, 48.3987], [15.62386, 48.39863], [15.62378, 48.39858], [15.62364, 48.39852], [15.62347, 48.39845], [15.62344, 48.39844], [15.6232, 48.39837], [15.6229, 48.39832], [15.62268, 48.39829], [15.62226, 48.39825], [15.62209, 48.39824], [15.62198, 48.39823]], "type": "LineString"}, "properties": {"id": 3, "priority": "0", "stress": "2"}, "type": "Feature"},
{"geometry": {"coordinates": [[15.61641, 48.41059], [15.61642, 48.41055], [15.6164, 48.4102]], "type": "LineString"}, "properties": {"id": 4, "priority": "1", "stress": "2"}, "type": "Feature"},
{"geometry": {"coordinates": [[15.61989, 48.41082], [15.61992, 48.41065], [15.61993, 48.41061], [15.62039, 48.4106], [15.62049, 48.41059], [15.62052, 48.41057], [15.62052, 48.41055], [15.62051, 48.4105], [15.62051, 48.41048], [15.62063, 48.41048], [15.62084, 48.41047], [15.62096, 48.41046], [15.62104, 48.41045], [15.62125, 48.41041], [15.62134, 48.41039], [15.62146, 48.41038], [15.62169, 48.41038], [15.62173, 48.41038], [15.62264, 48.41027], [15.62359, 48.41015], [15.6246, 48.41002], [15.62452, 48.40982], [15.62443, 48.4096], [15.62435, 48.40948], [15.62426, 48.4094], [15.62412, 48.40929], [15.62386, 48.40915], [15.62343, 48.40892], [15.62318, 48.40875], [15.62302, 48.40861], [15.62285, 48.40841], [15.62283, 48.40832], [15.62286, 48.40768]], "type": "LineString"}, "properties": {"id": 5, "priority": "0", "stress": "1"}, "type": "Feature"},
{"geometry": {"coordinates": [[15.60833, 48.40983], [15.60826, 48.40983], [15.60826, 48.40975], [15.60827, 48.40971], [15.60842, 48.40901], [15.60844, 48.40896], [15.6085, 48.40873], [15.60861, 48.40828], [15.60866, 48.40809], [15.60874, 48.40777], [15.60881, 48.40747], [15.60894, 48.407], [15.60898, 48.4068], [15.60899, 48.40674], [15.609, 48.40672], [15.60885, 48.40668], [15.60829, 48.40662], [15.60725, 48.40654], [15.60597, 48.40644], [15.6048, 48.40635], [15.60462, 48.40634], [15.60426, 48.40635], [15.60396, 48.40639], [15.60371, 48.40645], [15.60362, 48.40645]], "type": "LineString"}, "properties": {"id": 6, "priority": "0", "stress": "0"}, "type": "Feature"},
{"geometry": {"coordinates": [[15.61524, 48.40992], [15.61523, 48.40989], [15.61521, 48.40982], [15.61518, 48.40976], [15.61512, 48.40968], [15.61504, 48.40961], [15.61499, 48.40957], [15.61478, 48.40946], [15.61463, 48.40941], [15.61441, 48.40936], [15.61408, 48.40931], [15.61367, 48.40925], [15.6132, 48.40918], [15.61261, 48.40915], [15.61195, 48.40912], [15.61058, 48.40906], [15.60997, 48.40903], [15.60876, 48.409], [15.60862, 48.40898], [15.60844, 48.40896]], "type": "LineString"}, "properties": {"id": 7, "oneway": "yes", "priority": "1", "stress": "1"}, "type": "Feature"},
{"geometry": {"coordinates": [[15.56313, 48.38573], [15.56301, 48.38588], [15.5629, 48.38608], [15.56262, 48.38662], [15.5624, 48.387], [15.56176, 48.38799], [15.56143, 48.38846], [15.5613, 48.38856]], "type": "LineString"}, "properties": {"id": 8, "priority": "1", "stress": "1"}, "type": "Feature"},
{"geometry": {"coordinates": [[15.62198, 48.39823], [15.62186, 48.39822], [15.62177, 48.39822], [15.62136, 48.39819], [15.62087, 48.39819], [15.62058, 48.39819], [15.62032, 48.39819], [15.61933, 48.39822], [15.61813, 48.39825], [15.61667, 48.39829], [15.61532, 48.39833], [15.61447, 48.39836], [15.61289, 48.3984], [15.61275, 48.39841]], "type": "LineString"}, "properties": {"id": 9, "priority": "0", "stress": "1"}, "type": "Feature"},
{"geometry": {"coordinates": [[15.62508, 48.39795], [15.62516, 48.39795], [15.62528, 48.39793], [15.62542, 48.3979], [15.62566, 48.39784], [15.62586, 48.39777], [15.62606, 48.39767], [15.62655, 48.39744], [15.62672, 48.39736], [15.6268, 48.39728], [15.62699, 48.39705], [15.62716, 48.3968], [15.6276, 48.39617], [15.62782, 48.39588], [15.6281, 48.3955], [15.62881, 48.3946], [15.62908, 48.39433], [15.62988, 48.39365], [15.63057, 48.39326], [15.63126, 48.39295], [15.63196, 48.39273], [15.63292, 48.39252]], "type": "LineString"}, "properties": {"id": 10, "priority": "0", "stress": "0"}, "type": "Feature"},
{"geometry": {"coordinates": [[15.60392, 48.40987], [15.60405, 48.40979], [15.60408, 48.40974], [15.60408, 48.40965], [15.60424, 48.4095], [15.60457, 48.40924], [15.60456, 48.4092], [15.60399, 48.409], [15.60377, 48.40895], [15.60287, 48.40863], [15.60247, 48.40849], [15.60207, 48.409], [15.60186, 48.40922]], "type": "LineString"}, "properties": {"id": 11, "oneway": "yes", "priority": "0", "stress": "2"}, "type": "Feature"},
{"geometry": {"coordinates": [[15.58815, 48.40495], [15.58817, 48.40496], [15.58858, 48.40525], [15.58888, 48.40546], [15.58896, 48.4055], [15.58911, 48.4056], [15.58935, 48.40576], [15.58967, 48.40594], [15.59002, 48.40614], [15.59035, 48.4063], [15.59073, 48.40646], [15.59104, 48.40656], [15.59209, 48.40693], [15.59338, 48.40737], [15.59367, 48.40746], [15.59422, 48.40766], [15.59468, 48.40782], [15.59487, 48.40788], [15.59491, 48.40791], [15.59494, 48.40799], [15.5952, 48.4083], [15.59533, 48.40847], [15.59546, 48.40862], [15.59563, 48.40882], [15.59576, 48.40898], [15.59582, 48.40908], [15.59595, 48.40921], [15.59605, 48.40928]], "type": "LineString"}, "properties": {"id": 12, "priority": "1", "stress": "1"}, "type": "Feature"},
{"geometry": {"coordinates": [[15.61234, 48.39849], [15.61237, 48.39853], [15.61247, 48.39864], [15.61259, 48.39876], [15.6127, 48.39891], [15.61309, 48.39939], [15.61339, 48.39978], [15.61373, 48.40022], [15.61385, 48.40036], [15.61454, 48.40117], [15.61461, 48.40122], [15.61468, 48.40126], [15.61477, 48.40127], [15.61487, 48.40127], [15.61572, 48.40129], [15.62172, 48.40145], [15.62588, 48.40144], [15.62668, 48.40131], [15.62709, 48.40109], [15.62759, 48.40089], [15.6299, 48.4006], [15.63018, 48.40063], [15.63069, 48.40083]], "type": "LineString"}, "properties": {"id": 13, "priority": "0", "stress": "0"}, "type": "Feature"},
{"geometry": {"coordinates": [[15.57655, 48.39556], [15.57647, 48.39545], [15.57631, 48.39538], [15.57624, 48.39527], [15.57637, 48.39517], [15.57657, 48.39505], [15.57666, 48.3949]], "type": "LineString"}, "properties": {"id": 14, "priority": "0", "stress": "0"}, "type": "Feature"},
{"geometry": {"coordinates": [[15.6098, 48.37952], [15.60976, 48.37937], [15.60977, 48.37906], [15.60981, 48.37866], [15.60978, 48.37796]], "type": "LineString"}, "properties": {"id": 15, "priority": "0", "stress": "2"}, "type": "Feature"},
{"geometry": {"coordinates": [[15.58789, 48.40401], [15.58807, 48.40402], [15.58824, 48.40413], [15.58838, 48.40417], [15.58846, 48.40404]], "type": "LineString"}, "properties": {"id": 16, "priority": "0", "stress": "0"}, "type": "Feature"},
{"geometry": {"coordinates": [[15.61028, 48.39006], [15.6105, 48.38997], [15.61091, 48.38987], [15.61222, 48.38989], [15.61368, 48.38987], [15.61376, 48.38983], [15.61372, 48.38959], [15.61358, 48.389], [15.61346, 48.38866], [15.61331, 48.38838], [15.61318, 48.38813], [15.6131, 48.38797], [15.6131, 48.38786], [15.61309, 48.38772], [15.61307, 48.38753], [15.6131, 48.38717], [15.61309, 48.38699], [15.61301, 48.38677], [15.61293, 48.3866], [15.61285, 48.38646], [15.61284, 48.38639], [15.61288, 48.38633], [15.61293, 48.38628], [15.61311, 48.38615], [15.61326, 48.38605], [15.6134, 48.38596], [15.61386, 48.38576], [15.61414, 48.38559], [15.61439, 48.38542], [15.61447, 48.38532], [15.61447, 48.38517], [15.61445, 48.38499], [15.61441, 48.3848], [15.61435, 48.38457], [15.61435, 48.38454], [15.61434, 48.38451]], "type": "LineString"}, "properties": {"id": 17, "priority": "0", "stress": "1"}, "type": "Feature"},
{"geometry": {"coordinates": [[15.58838, 48.42527], [15.58833, 48.4251], [15.5883, 48.425], [15.58826, 48.42487], [15.5882, 48.42463], [15.58817, 48.4245], [15.58816, 48.42445], [15.58816, 48.42439], [15.58816, 48.42435], [15.58817, 48.4243], [15.5882, 48.4242], [15.5883, 48.42411], [15.58884, 48.42365], [15.58913, 48.42338], [15.58959, 48.42296], [15.58982, 48.42274], [15.59005, 48.42252], [15.59042, 48.42213], [15.59077, 48.42178], [15.59093, 48.42155], [15.591, 48.42145], [15.59103, 48.42138], [15.59114, 48.42118], [15.59119, 48.42108], [15.5913, 48.42096], [15.59171, 48.42106], [15.59181, 48.42108], [15.59211, 48.42108], [15.59227, 48.42106], [15.59249, 48.42106], [15.59266, 48.42107], [15.59282, 48.4211], [15.59308, 48.42118], [15.59333, 48.42125], [15.59357, 48.42131], [15.59402, 48.42141], [15.59427, 48.42145], [15.59466, 48.42151], [15.59484, 48.42152], [15.59502, 48.42153], [15.59519, 48.42152], [15.5953, 48.42151], [15.59539, 48.42149], [15.59548, 48.42146], [15.59565, 48.42138], [15.59581, 48.4213], [15.59589, 48.42127], [15.59599, 48.42125], [15.59602, 48.42125], [15.59615, 48.42124], [15.59652, 48.42124], [15.59674, 48.42124], [15.59703, 48.42124], [15.59717, 48.42124], [15.59752, 48.42124], [15.59769, 48.42125], [15.59839, 48.42127], [15.59883, 48.4213], [15.5993, 48.42133], [15.59962, 48.42137], [15.5997, 48.42137], [15.59986, 48.42136], [15.60006, 48.42135]], "type": "LineString"}, "properties": {"id": 18, "priority": "0", "stress": "0"}, "type": "Feature"},
{"geometry": {"coordinates": [[15.58911, 48.42744], [15.58913, 48.42743], [15.58924, 48.42737], [15.5893, 48.42733], [15.58939, 48.42726], [15.58947, 48.42719], [15.58952, 48.42711], [15.58958, 48.42705], [15.58961, 48.42699], [15.5896, 48.42692], [15.5896, 48.42685], [15.58957, 48.42679], [15.58954, 48.4267], [15.58941, 48.42653], [15.58896, 48.42591], [15.58862, 48.42547], [15.58838, 48.42531]], "type": "LineString"}, "properties": {"id": 19, "priority": "0", "stress": "1"}, "type": "Feature"},
{"geometry": {"coordinates": [[15.61114, 48.41172], [15.6112, 48.41172], [15.61149, 48.41171], [15.61176, 48.41166], [15.61203, 48.41161], [15.61238, 48.41157], [15.61263, 48.41151], [15.61386, 48.41103], [15.61412, 48.41099], [15.61437, 48.41098], [15.61477, 48.41097], [15.61546, 48.41102], [15.61612, 48.41105], [15.6165, 48.41108], [15.6169, 48.41107], [15.61718, 48.41103], [15.61739, 48.41103], [15.6176, 48.41107], [15.61801, 48.4112], [15.6184, 48.41138], [15.61877, 48.41158], [15.61914, 48.41182], [15.61965, 48.41222], [15.61974, 48.41217], [15.61991, 48.41209], [15.62006, 48.412], [15.62011, 48.41196], [15.62013, 48.41195], [15.62016, 48.41191], [15.62026, 48.41184], [15.6205, 48.41168], [15.62055, 48.41166], [15.62052, 48.41162], [15.62001, 48.4111], [15.61987, 48.41092]], "type": "LineString"}, "properties": {"id": 20, "priority": "1", "stress": "1"}, "type": "Feature"},
{"geometry": {"coordinates": [[15.57631, 48.39538], [15.57615, 48.3954], [15.57592, 48.39535], [15.57579, 48.39533], [15.57564, 48.39537], [15.57544, 48.39539], [15.5751, 48.39535], [15.57465, 48.39517], [15.57353, 48.3947], [15.57271, 48.39433], [15.57223, 48.39408]], "type": "LineString"}, "properties": {"id": 21, "priority": "0", "stress": "0"}, "type": "Feature"},
{"geometry": {"coordinates": [[15.60782, 48.41163], [15.60794, 48.41148], [15.6082, 48.4111], [15.60831, 48.41097], [15.60842, 48.41088], [15.60866, 48.41074], [15.60904, 48.41063], [15.60945, 48.41053], [15.60993, 48.41043], [15.61012, 48.41039], [15.61036, 48.41037], [15.61074, 48.41029], [15.61105, 48.41018]], "type": "LineString"}, "properties": {"id": 22, "priority": "1", "stress": "1"}, "type": "Feature"},
{"geometry": {"coordinates": [[15.57507, 48.41693], [15.57497, 48.41654], [15.57482, 48.41603], [15.57475, 48.41566], [15.57486, 48.4154], [15.57516, 48.41516], [15.57617, 48.41433], [15.57647, 48.41398], [15.57694, 48.41366], [15.57728, 48.41341], [15.5775, 48.41318], [15.5776, 48.41275], [15.57763, 48.4122], [15.57766, 48.41192]], "type": "LineString"}, "properties": {"id": 23, "priority": "1", "steep": "yes", "stress": "2"}, "type": "Feature"},
{"geometry": {"coordinates": [[15.58322, 48.40196], [15.58336, 48.40202], [15.58412, 48.40229], [15.58452, 48.40245], [15.58511, 48.40269], [15.58582, 48.403], [15.58635, 48.40322], [15.58699, 48.4035], [15.58749, 48.4037], [15.58764, 48.40377], [15.58767, 48.4039], [15.58789, 48.40401]], "type": "LineString"}, "properties": {"id": 24, "priority": "0", "stress": "1"}, "type": "Feature"},
{"geometry": {"coordinates": [[15.62531, 48.41217], [15.62544, 48.41218], [15.62565, 48.4122], [15.62632, 48.41226], [15.62685, 48.41231], [15.6272, 48.41235], [15.62748, 48.41245], [15.62786, 48.41253], [15.62841, 48.41264], [15.6285, 48.41264], [15.62854, 48.41262]], "type": "LineString"}, "properties": {"id": 25, "priority": "1", "stress": "1"}, "type": "Feature"},
{"geometry": {"coordinates": [[15.60685, 48.41116], [15.60629, 48.41092], [15.60584, 48.41077], [15.60566, 48.41071], [15.60483, 48.41041], [15.60414, 48.41018], [15.6039, 48.4101], [15.60366, 48.41001], [15.60273, 48.40969], [15.60192, 48.40941], [15.60174, 48.40934], [15.60162, 48.40927], [15.60148, 48.40922], [15.60126, 48.40917], [15.60072, 48.409], [15.60053, 48.4089], [15.60044, 48.40886], [15.60024, 48.40881], [15.5999, 48.4087], [15.5992, 48.40845], [15.59916, 48.40844], [15.59743, 48.40784], [15.59703, 48.4077], [15.59665, 48.40757], [15.59657, 48.40755], [15.59601, 48.40736], [15.59595, 48.40733], [15.5954, 48.40712], [15.59403, 48.40665], [15.593, 48.4063], [15.59235, 48.40605], [15.59165, 48.40573], [15.58991, 48.40488], [15.58948, 48.40469], [15.58855, 48.40425], [15.58838, 48.40417]], "type": "LineString"}, "properties": {"id": 26, "oneway": "yes", "priority": "0", "stress": "0"}, "type": "Feature"},
{"geometry": {"coordinates": [[15.60358, 48.41145], [15.60369, 48.41157], [15.60388, 48.41174], [15.60398, 48.41183], [15.60402, 48.41186], [15.60422, 48.41193], [15.60435, 48.41196], [15.60465, 48.41203], [15.60482, 48.4121], [15.6049, 48.41214], [15.60505, 48.41227], [15.60509, 48.41231], [15.60515, 48.41236], [15.60517, 48.41239], [15.60519, 48.41241]], "type": "LineString"}, "properties": {"id": 27, "oneway": "yes", "priority": "1", "stress": "0"}, "type": "Feature"},
{"geometry": {"coordinates": [[15.58712, 48.40431], [15.58678, 48.40448], [15.58647, 48.40465], [15.58617, 48.40484], [15.58558, 48.40524], [15.58552, 48.40532], [15.5855, 48.40547], [15.5855, 48.40574], [15.58542, 48.40622], [15.5852, 48.40708], [15.5851, 48.40748], [15.58505, 48.40774], [15.58493, 48.40827], [15.58491, 48.40853], [15.58498, 48.4087], [15.58516, 48.40879], [15.58557, 48.40887], [15.58604, 48.40895], [15.58651, 48.40897], [15.58691, 48.40898], [15.58715, 48.40902], [15.58756, 48.40912], [15.58769, 48.4092], [15.58792, 48.40937], [15.58815, 48.40946], [15.58841, 48.40951], [15.58873, 48.40956], [15.58898, 48.40972], [15.58919, 48.4099], [15.58935, 48.41003], [15.58958, 48.41013], [15.59008, 48.41027], [15.5905, 48.41038], [15.59056, 48.4104]], "type": "LineString"}, "properties": {"id": 28, "priority": "1", "stress": "2"}, "type": "Feature"},
{"geometry": {"coordinates": [[15.62799, 48.41047], [15.62808, 48.41046], [15.6282, 48.41038], [15.6283, 48.4103], [15.62834, 48.41018], [15.62833, 48.41012], [15.62827, 48.41009], [15.62824, 48.41005], [15.62827, 48.40996], [15.62836, 48.4099], [15.62842, 48.40988], [15.62852, 48.40988], [15.62859, 48.40992]], "type": "LineString"}, "properties": {"id": 29, "priority": "0", "stress": "1"}, "type": "Feature"},
{"geometry": {"coordinates": [[15.60519, 48.41241], [15.60527, 48.41237], [15.60541, 48.41227], [15.60558, 48.41215], [15.60568, 48.41209], [15.60579, 48.41201], [15.60611, 48.41181], [15.60619, 48.41176], [15.60635, 48.41165], [15.60651, 48.41155], [15.60662, 48.41148], [15.60671, 48.41143], [15.60715, 48.41119], [15.60749, 48.411], [15.60767, 48.4109], [15.60777, 48.41085], [15.60793, 48.41075], [15.60808, 48.41067], [15.6082, 48.41055], [15.60823, 48.41049], [15.60825, 48.4104], [15.6083, 48.41017], [15.60833, 48.41002], [15.60836, 48.40985], [15.60836, 48.40983]], "type": "LineString"}, "properties": {"id": 30, "priority": "0", "stress": "2"}, "type": "Feature"},
{"geometry": {"coordinates": [[15.58722, 48.4043], [15.58758, 48.40456], [15.58815, 48.40495]], "type": "LineString"}, "properties": {"id": 31, "priority": "1", "stress": "0"}, "type": "Feature"},
{"geometry": {"coordinates": [[15.60829, 48.41112], [15.60877, 48.41125], [15.60913, 48.41142], [15.60921, 48.41144], [15.60945, 48.41137], [15.60953, 48.41135], [15.60963, 48.41135], [15.61001, 48.41145], [15.61071, 48.41164], [15.61087, 48.41169], [15.61114, 48.41172]], "type": "LineString"}, "properties": {"id": 32, "oneway": "yes", "priority": "1", "stress": "1"}, "type": "Feature"},
{"geometry": {"coordinates": [[15.61028, 48.39006], [15.60981, 48.39004], [15.60945, 48.39004], [15.60945, 48.39073], [15.60941, 48.3913], [15.60941, 48.39224], [15.60945, 48.39257], [15.60951, 48.39314], [15.6076, 48.39336], [15.60621, 48.39354], [15.60541, 48.39365], [15.60507, 48.39378], [15.60391, 48.39403], [15.6028, 48.39409], [15.60213, 48.39408], [15.60162, 48.39395], [15.60099, 48.39386], [15.6005, 48.39382], [15.60005, 48.39366], [15.59981, 48.39356], [15.59921, 48.39349], [15.59889, 48.39352], [15.59861, 48.39356], [15.59831, 48.39351]], "type": "LineString"}, "properties": {"id": 33, "priority": "1", "stress": "0"}, "type": "Feature"},
{"geometry": {"coordinates": [[15.62859, 48.40992], [15.62862, 48.40996], [15.62868, 48.40998], [15.62883, 48.40996], [15.62955, 48.4099], [15.62968, 48.40988], [15.62975, 48.40987], [15.62999, 48.40986], [15.63033, 48.40985], [15.63064, 48.40982], [15.63216, 48.40973], [15.63295, 48.40969], [15.63354, 48.40965], [15.63394, 48.40964], [15.63433, 48.40964], [15.63482, 48.40967], [15.63515, 48.4097], [15.63521, 48.4097], [15.63526, 48.40968], [15.63531, 48.40967], [15.63546, 48.40971], [15.63574, 48.40979], [15.63601, 48.40985], [15.63631, 48.40989], [15.63644, 48.40991], [15.63683, 48.40996], [15.63716, 48.40998], [15.63742, 48.40998], [15.63767, 48.40997], [15.63795, 48.40995], [15.63841, 48.40989], [15.63891, 48.40975], [15.63923, 48.40966], [15.63956, 48.40957], [15.64025, 48.4093], [15.64147, 48.40883], [15.64201, 48.4086]], "type": "LineString"}, "properties": {"id": 34, "priority": "0", "stress": "0"}, "type": "Feature"},
{"geometry": {"coordinates": [[15.58846, 48.40404], [15.58862, 48.40411], [15.58911, 48.40433], [15.58966, 48.40461], [15.59074, 48.4051], [15.59113, 48.4053], [15.59166, 48.40552], [15.59213, 48.40574], [15.59246, 48.40591], [15.59319, 48.40619], [15.59418, 48.40652], [15.59535, 48.40693], [15.59632, 48.40729], [15.59756, 48.40772], [15.59812, 48.40791], [15.59907, 48.40825], [15.59929, 48.40834], [15.59973, 48.40848], [15.60037, 48.40869], [15.60156, 48.40911], [15.60186, 48.40922], [15.60221, 48.40934], [15.60317, 48.40965], [15.60393, 48.40993], [15.60506, 48.4103], [15.60543, 48.41044], [15.60609, 48.41069], [15.6068, 48.41095], [15.60707, 48.41109]], "type": "LineString"}, "properties": {"id": 35, "oneway": "yes", "priority": "0", "stress": "0"}, "type": "Feature"},
{"geometry": {"coordinates": [[15.63258, 48.39129], [15.63274, 48.39129], [15.63304, 48.39136], [15.63335, 48.39147], [15.63356, 48.39154], [15.63448, 48.39168], [15.635, 48.39165], [15.63547, 48.39153], [15.63602, 48.39148], [15.63662, 48.39138], [15.63736, 48.39121], [15.63786, 48.39114], [15.63842, 48.39112], [15.63908, 48.39111], [15.63956, 48.39103], [15.6401, 48.39081], [15.64093, 48.39047], [15.64158, 48.39004], [15.64222, 48.3895], [15.64254, 48.3893]], "type": "LineString"}, "properties": {"id": 36, "priority": "0", "stress": "1", "unpaved": "yes"}, "type": "Feature"},
{"geometry": {"coordinates": [[15.57647, 48.39361], [15.57625, 48.3935], [15.5761, 48.39343], [15.57585, 48.39325], [15.57523, 48.39287], [15.57489, 48.39259], [15.57469, 48.39247], [15.57441, 48.39235], [15.57367, 48.39209], [15.57318, 48.39189], [15.57148, 48.39112], [15.57095, 48.39076], [15.57042, 48.39036], [15.56926, 48.38931], [15.56909, 48.38914], [15.56879, 48.38877], [15.56857, 48.38838], [15.56843, 48.38814], [15.56812, 48.38788], [15.56769, 48.3876], [15.56626, 48.38697], [15.56459, 48.38629], [15.56324, 48.3857], [15.56314, 48.38568]], "type": "LineString"}, "properties": {"id": 37, "priority": "1", "stress": "1"}, "type": "Feature"},
{"geometry": {"coordinates": [[15.63292, 48.39252], [15.63279, 48.39214], [15.6327, 48.39191], [15.63263, 48.39148], [15.63258, 48.39129]], "type": "LineString"}, "properties": {"id": 38, "priority": "0", "stress": "1"}, "type": "Feature"},
{"geometry": {"coordinates": [[15.57514, 48.39999], [15.57523, 48.40006], [15.57563, 48.40014], [15.57616, 48.40023], [15.57659, 48.40029], [15.57695, 48.4004], [15.57785, 48.40074], [15.57816, 48.40082], [15.57861, 48.40096], [15.57896, 48.40105], [15.57909, 48.40116], [15.57927, 48.40128], [15.57976, 48.40143], [15.58065, 48.40171], [15.58134, 48.40189], [15.58169, 48.40198], [15.58228, 48.40208], [15.58275, 48.40216], [15.5831, 48.40223], [15.58333, 48.40228], [15.58356, 48.40245], [15.58388, 48.40265], [15.58404, 48.40274], [15.58449, 48.40295], [15.58508, 48.40319], [15.5856, 48.40342], [15.58631, 48.40378], [15.58652, 48.40393], [15.58677, 48.4041], [15.58712, 48.40431], [15.58722, 48.4043]], "type": "LineString"}, "properties": {"id": 39, "priority": "1", "stress": "1"}, "type": "Feature"},
{"geometry": {"coordinates": [[15.5538, 48.38663], [15.55378, 48.38665], [15.55373, 48.38672]], "type": "LineString"}, "properties": {"id": 40, "priority": "0", "stress": "2"}, "type": "Feature"},
{"geometry": {"coordinates": [[15.58829, 48.39109], [15.58845, 48.39104], [15.58876, 48.39095], [15.5891, 48.39089], [15.58941, 48.39078], [15.58967, 48.3907], [15.59001, 48.39061], [15.59081, 48.39035]], "type": "LineString"}, "properties": {"id": 41, "priority": "0", "stress": "2"}, "type": "Feature"},
{"geometry": {"coordinates": [[15.61434, 48.38451], [15.61418, 48.38451], [15.61392, 48.3845], [15.61371, 48.38453], [15.61329, 48.38463], [15.61258, 48.38481], [15.61175, 48.385], [15.6113, 48.38511], [15.61077, 48.38521], [15.61039, 48.38526], [15.60997, 48.38531], [15.60959, 48.38535], [15.60855, 48.38542], [15.60754, 48.38546], [15.60659, 48.38551], [15.60622, 48.38554], [15.60579, 48.3856], [15.60463, 48.38579], [15.60277, 48.38612], [15.60223, 48.38623], [15.60137, 48.38653], [15.6008, 48.38675], [15.59844, 48.38751], [15.59789, 48.38766]], "type": "LineString"}, "properties": {"id": 42, "priority": "0", "stress": "2"}, "type": "Feature"},
{"geometry": {"coordinates": [[15.56314, 48.38568], [15.5631, 48.38566], [15.56301, 48.38558], [15.56258, 48.38539], [15.56172, 48.38494], [15.56157, 48.38483], [15.56125, 48.38467], [15.56098, 48.38451], [15.5604, 48.38428], [15.55959, 48.38403], [15.55934, 48.38396], [15.55909, 48.38381], [15.55883, 48.38353], [15.55868, 48.38323], [15.55867, 48.38312]], "type": "LineString"}, "properties": {"id": 43, "priority": "1", "stress": "1"}, "type": "Feature"},
{"geometry": {"coordinates": [[15.64201, 48.4086], [15.64204, 48.40863], [15.6421, 48.40864], [15.64216, 48.40861], [15.64222, 48.40858], [15.6423, 48.40854], [15.64243, 48.40847], [15.64254, 48.40839], [15.64339, 48.40807], [15.64517, 48.40737]], "type": "LineString"}, "properties": {"id": 44, "priority": "0", "stress": "1"}, "type": "Feature"},
{"geometry": {"coordinates": [[15.62327, 48.41203], [15.62321, 48.41203], [15.62302, 48.41201], [15.62243, 48.41196], [15.62218, 48.41193], [15.62207, 48.41192], [15.62192, 48.41187]], "type": "LineString"}, "properties": {"id": 45, "oneway": "yes", "priority": "1", "stress": "1"}, "type": "Feature"},
{"geometry": {"coordinates": [[15.5669, 48.4237], [15.56752, 48.42369], [15.5684, 48.42352], [15.56924, 48.42326], [15.56992, 48.42298], [15.5705, 48.42262], [15.57091, 48.42244], [15.57117, 48.42211], [15.5714, 48.42192], [15.57218, 48.42161], [15.57245, 48.42143], [15.57286, 48.42128], [15.57329, 48.4211], [15.5737, 48.42091], [15.57415, 48.42077], [15.57494, 48.42049], [15.57539, 48.42029], [15.57576, 48.42], [15.57587, 48.41979], [15.57587, 48.41953], [15.57572, 48.41891], [15.57572, 48.41856], [15.57574, 48.41811], [15.57567, 48.41781], [15.57518, 48.41713]], "type": "LineString"}, "properties": {"id": 46, "priority": "1", "steep": "yes", "stress": "1"}, "type": "Feature"},
{"geometry": {"coordinates": [[15.60358, 48.40644], [15.60338, 48.40641], [15.60266, 48.40635], [15.60241, 48.40632], [15.60216, 48.4063], [15.60185, 48.40629], [15.60172, 48.40629], [15.60154, 48.40631], [15.6014, 48.40633], [15.60116, 48.40641], [15.60101, 48.40648], [15.60091, 48.40656], [15.60085, 48.40663], [15.60087, 48.40669], [15.6009, 48.40674], [15.60078, 48.40679], [15.60071, 48.40684], [15.6006, 48.40697], [15.60032, 48.40728], [15.60014, 48.40743], [15.60003, 48.40751], [15.59994, 48.40759], [15.59965, 48.40793], [15.59929, 48.40834], [15.5992, 48.40845]], "type": "LineString"}, "properties": {"id": 47, "priority": "0", "stress": "2"}, "type": "Feature"},
{"geometry": {"coordinates": [[15.64274, 48.38918], [15.64298, 48.38903], [15.64307, 48.38889], [15.64391, 48.38836], [15.64465, 48.38787], [15.64506, 48.38752], [15.64535, 48.38727], [15.6461, 48.38647], [15.64619, 48.38632], [15.64626, 48.38627], [15.64627, 48.38619], [15.64628, 48.38616], [15.64633, 48.38615], [15.64639, 48.3861], [15.64647, 48.38602], [15.64662, 48.38584], [15.64668, 48.38571], [15.64672, 48.38558], [15.64676, 48.3854], [15.64683, 48.3852], [15.64704, 48.38485], [15.6471, 48.3847], [15.64715, 48.38451], [15.64721, 48.38428], [15.64729, 48.38382], [15.64739, 48.38336], [15.64747, 48.38321], [15.64769, 48.38287], [15.64819, 48.38229], [15.6488, 48.38182], [15.64953, 48.38138], [15.64992, 48.38118], [15.65069, 48.38086], [15.6507, 48.38077], [15.65068, 48.38061], [15.65066, 48.38052], [15.65071, 48.38044]], "type": "LineString"}, "properties": {"id": 48, "priority": "0", "stress": "1"}, "type": "Feature"},
{"geometry": {"coordinates": [[15.62177, 48.39822], [15.62191, 48.39827], [15.62202, 48.39829], [15.62211, 48.39829], [15.62216, 48.39827], [15.62227, 48.39817], [15.6224, 48.39813], [15.62264, 48.39809], [15.62283, 48.39807], [15.62357, 48.39804], [15.62503, 48.39796]], "type": "LineString"}, "properties": {"id": 49, "priority": "1", "stress": "2"}, "type": "Feature"},
{"geometry": {"coordinates": [[15.57672, 48.39522], [15.57696, 48.39524], [15.57728, 48.3953], [15.57738, 48.39542], [15.57756, 48.39557], [15.57824, 48.39569], [15.57926, 48.39583], [15.57991, 48.39592], [15.58057, 48.396], [15.58118, 48.39606], [15.58171, 48.39611], [15.58338, 48.39592], [15.58535, 48.3957], [15.58621, 48.3956], [15.58651, 48.39562], [15.5866, 48.3955], [15.58614, 48.39487], [15.58539, 48.39492], [15.58528, 48.39493], [15.58524, 48.3949], [15.58521, 48.39485], [15.58516, 48.39458], [15.5851, 48.39454], [15.58503, 48.39452], [15.58473, 48.39445], [15.58429, 48.39436], [15.58403, 48.39428], [15.58377, 48.39419], [15.58354, 48.39411], [15.58273, 48.39375], [15.58213, 48.39339], [15.58183, 48.39323], [15.58154, 48.39316], [15.58141, 48.39314], [15.5804, 48.3931], [15.57957, 48.3931], [15.57941, 48.39287]], "type": "LineString"}, "properties": {"id": 50, "priority": "0", "stress": "1"}, "type": "Feature"},
{"geometry": {"coordinates": [[15.59705, 48.40831], [15.59744, 48.40847], [15.59779, 48.40861], [15.59791, 48.40865], [15.59801, 48.40868], [15.59813, 48.40872], [15.59834, 48.40881], [15.5985, 48.4089], [15.59869, 48.409], [15.59871, 48.40903], [15.59876, 48.40909]], "type": "LineString"}, "properties": {"id": 51, "priority": "1", "stress": "1"}, "type": "Feature"},
{"geometry": {"coordinates": [[15.62003, 48.41628], [15.62009, 48.41631], [15.62027, 48.41636], [15.62049, 48.41648], [15.62079, 48.41659], [15.62123, 48.41668], [15.62187, 48.41677], [15.62271, 48.41688], [15.6233, 48.41695], [15.6237, 48.41698], [15.62408, 48.41705], [15.62469, 48.41724], [15.62525, 48.41746], [15.6264, 48.41789], [15.62701, 48.41809], [15.62808, 48.41842], [15.62872, 48.41862], [15.62901, 48.41866], [15.62912, 48.41865], [15.62929, 48.41865], [15.6294, 48.41879], [15.62927, 48.41888], [15.6291, 48.41888], [15.62902, 48.41884], [15.62872, 48.41862]], "type": "LineString"}, "properties": {"id": 52, "priority": "0", "stress": "2"}, "type": "Feature"},
{"geometry": {"coordinates": [[15.6092, 48.40599], [15.60917, 48.40599], [15.60907, 48.406], [15.60882, 48.40603], [15.60869, 48.40604], [15.60838, 48.40608], [15.60778, 48.40614], [15.60757, 48.40615], [15.60735, 48.40616], [15.60725, 48.40616], [15.60692, 48.40615], [15.60648, 48.40613], [15.60585, 48.40607], [15.60529, 48.40601]], "type": "LineString"}, "properties": {"id": 53, "priority": "1", "stress": "0"}, "type": "Feature"},
{"geometry": {"coordinates": [[15.63445, 48.41581], [15.63463, 48.41552], [15.6347, 48.41527], [15.63492, 48.41463], [15.63514, 48.41406], [15.63527, 48.41373], [15.63521, 48.41362]], "type": "LineString"}, "properties": {"id": 54, "priority": "1", "stress": "2"}, "type": "Feature"},
{"geometry": {"coordinates": [[15.58712, 48.40431], [15.58716, 48.40421], [15.58739, 48.40409], [15.58754, 48.40393], [15.58767, 48.4039]], "type": "LineString"}, "properties": {"id": 55, "priority": "1", "stress": "0"}, "type": "Feature"},
{"geometry": {"coordinates": [[15.57215, 48.39401], [15.57228, 48.394], [15.5724, 48.39401], [15.57256, 48.39401], [15.57276, 48.39399], [15.57293, 48.39394], [15.57315, 48.39385], [15.57324, 48.39381], [15.57327, 48.39376], [15.57331, 48.39369], [15.57343, 48.39359], [15.57379, 48.39333], [15.5742, 48.39304], [15.57463, 48.39277], [15.57486, 48.39261], [15.57489, 48.39259]], "type": "LineString"}, "properties": {"id": 56, "priority": "0", "stress": "0"}, "type": "Feature"},
{"geometry": {"coordinates": [[15.65074, 48.3804], [15.65082, 48.38042], [15.65093, 48.38043], [15.6511, 48.3804], [15.65169, 48.3803], [15.65242, 48.38005], [15.65307, 48.37982], [15.6536, 48.37965], [15.65413, 48.37949], [15.65458, 48.3793], [15.65503, 48.379], [15.65542, 48.37867], [15.65587, 48.37822], [15.65609, 48.378], [15.65651, 48.37775], [15.65697, 48.37758], [15.65774, 48.3773], [15.65812, 48.37716], [15.65958, 48.37649], [15.66033, 48.37605], [15.66074, 48.37582], [15.66139, 48.37551], [15.66188, 48.37534], [15.66242, 48.37519], [15.66323, 48.37506], [15.66397, 48.37505], [15.66467, 48.37513], [15.66543, 48.3752], [15.66583, 48.37523], [15.66631, 48.37534], [15.66682, 48.37552], [15.66745, 48.3757], [15.66857, 48.3759], [15.66936, 48.37604], [15.6699, 48.37619], [15.67027, 48.37635], [15.67082, 48.37663], [15.67169, 48.37715], [15.67221, 48.37745], [15.67274, 48.37769], [15.67354, 48.37791], [15.67416, 48.37808], [15.6746, 48.37817], [15.67531, 48.37822], [15.67622, 48.37823], [15.67673, 48.37828], [15.67779, 48.37846], [15.67842, 48.37855], [15.67884, 48.37859], [15.67998, 48.37865], [15.68038, 48.37871], [15.68068, 48.37883], [15.68104, 48.37897], [15.68189, 48.37919], [15.6824, 48.3793], [15.68326, 48.37945], [15.68347, 48.37951], [15.68431, 48.3798], [15.68449, 48.37984], [15.68473, 48.37983], [15.68505, 48.3798], [15.68538, 48.37976], [15.68586, 48.37974], [15.6863, 48.37975], [15.68691, 48.37985], [15.68732, 48.37993], [15.68812, 48.38014], [15.68841, 48.38016], [15.68862, 48.38014], [15.68879, 48.38009], [15.68889, 48.38002], [15.68904, 48.37989], [15.68919, 48.37982], [15.68969, 48.37976], [15.69003, 48.37972], [15.69053, 48.3797], [15.69087, 48.37968], [15.69151, 48.37973], [15.69189, 48.37975], [15.69233, 48.37968]], "type": "LineString"}, "properties": {"id": 57, "priority": "0", "stress": "2"}, "type": "Feature"},
{"geometry": {"coordinates": [[15.59395, 48.40669], [15.59348, 48.4073], [15.59335, 48.40746], [15.59316, 48.4077], [15.59269, 48.40829], [15.59259, 48.40835], [15.59223, 48.40863], [15.59176, 48.40915], [15.59056, 48.4104]], "type": "LineString"}, "properties": {"id": 58, "priority": "1", "stress": "1"}, "type": "Feature"},
{"geometry": {"coordinates": [[15.58346, 48.43603], [15.58387, 48.43588], [15.58475, 48.43558], [15.58514, 48.43545], [15.58537, 48.43535], [15.58612, 48.43512], [15.58662, 48.43491], [15.58696, 48.43467], [15.5873, 48.43438], [15.58758, 48.4341], [15.58775, 48.43381], [15.58782, 48.4335], [15.58784, 48.43319], [15.58797, 48.43272], [15.58814, 48.43245], [15.58825, 48.43225], [15.58823, 48.43206], [15.58816, 48.43189], [15.58797, 48.43172], [15.58778, 48.43148], [15.58771, 48.43125], [15.5879, 48.43081], [15.58825, 48.43033], [15.58846, 48.4301], [15.5887, 48.42988], [15.58887, 48.42978], [15.58919, 48.42964], [15.58943, 48.42958], [15.58986, 48.42951], [15.59018, 48.42941], [15.59035, 48.42924], [15.59041, 48.42909], [15.59037, 48.42883], [15.59014, 48.4285], [15.58962, 48.42789], [15.58911, 48.42744]], "type": "LineString"}, "properties": {"id": 59, "priority": "0", "stress": "2"}, "type": "Feature"},
{"geometry": {"coordinates": [[15.69233, 48.37968], [15.69233, 48.3798], [15.69232, 48.37991], [15.69233, 48.38], [15.69241, 48.38012], [15.69246, 48.38026], [15.69251, 48.38067], [15.69252, 48.38099], [15.69238, 48.38102], [15.69075, 48.38102], [15.68996, 48.38099], [15.68914, 48.38093], [15.68898, 48.38092], [15.68892, 48.38094], [15.68887, 48.38099]], "type": "LineString"}, "properties": {"id": 60, "priority": "0", "stress": "1"}, "type": "Feature"},
{"geometry": {"coordinates": [[15.60523, 48.406], [15.60504, 48.40598], [15.60458, 48.40592], [15.60427, 48.40588], [15.60202, 48.40559], [15.6018, 48.40556], [15.60167, 48.40555], [15.60104, 48.4055], [15.60073, 48.40547], [15.60038, 48.40545], [15.59884, 48.40537], [15.59722, 48.40533]], "type": "LineString"}, "properties": {"id": 61, "priority": "1", "stress": "1"}, "type": "Feature"},
{"geometry": {"coordinates": [[15.57655, 48.39556], [15.57649, 48.39582], [15.57627, 48.3962], [15.5757, 48.39696], [15.57494, 48.39791], [15.57417, 48.39886], [15.5737, 48.39949]], "type": "LineString"}, "properties": {"id": 62, "priority": "0", "stress": "0"}, "type": "Feature"},
{"geometry": {"coordinates": [[15.6338, 48.41583], [15.63377, 48.41578], [15.63373, 48.41575], [15.63367, 48.41573], [15.63356, 48.41573], [15.63284, 48.41578], [15.63177, 48.41591], [15.63155, 48.41593], [15.63137, 48.41594], [15.63112, 48.41594], [15.63088, 48.41593], [15.63066, 48.41591], [15.63032, 48.41585], [15.62995, 48.41577], [15.62974, 48.41571], [15.62943, 48.4156], [15.62922, 48.41551], [15.62883, 48.41532], [15.6286, 48.41521], [15.62848, 48.41514], [15.62832, 48.41507], [15.62816, 48.41502], [15.62792, 48.41494], [15.6274, 48.41485], [15.62705, 48.41478], [15.62628, 48.41465], [15.62586, 48.41459], [15.62556, 48.41458], [15.6253, 48.41459], [15.625, 48.41463], [15.62476, 48.41466], [15.62431, 48.41474], [15.62396, 48.41478], [15.62357, 48.41478], [15.62327, 48.41473], [15.62298, 48.41463], [15.62277, 48.41452], [15.62244, 48.41429], [15.62222, 48.41417], [15.62201, 48.41405], [15.62194, 48.41403]], "type": "LineString"}, "properties": {"id": 63, "priority": "1", "stress": "1"}, "type": "Feature"},
{"geometry": {"coordinates": [[15.5737, 48.39949], [15.5737, 48.39969], [15.57391, 48.39983], [15.57441, 48.39988], [15.57482, 48.39988], [15.57535, 48.39988], [15.57563, 48.3999], [15.5763, 48.39998], [15.57707, 48.40012], [15.57784, 48.40033], [15.5787, 48.40052], [15.5792, 48.40063], [15.57968, 48.40076], [15.58025, 48.40089], [15.58064, 48.40101], [15.58107, 48.40119], [15.58134, 48.40129], [15.58166, 48.40141], [15.58224, 48.40162], [15.58272, 48.40178], [15.58322, 48.40196]], "type": "LineString"}, "properties": {"id": 64, "priority": "0", "stress": "2"}, "type": "Feature"},
{"geometry": {"coordinates": [[15.62208, 48.41386], [15.62201, 48.41379], [15.62192, 48.41365], [15.62183, 48.41353], [15.62156, 48.41324], [15.62147, 48.41311], [15.62143, 48.41303], [15.62137, 48.41279], [15.62137, 48.41272], [15.62131, 48.41267], [15.6209, 48.41242], [15.62063, 48.41229], [15.62011, 48.41196]], "type": "LineString"}, "properties": {"id": 65, "priority": "1", "stress": "1"}, "type": "Feature"},
{"geometry": {"coordinates": [[15.60898, 48.4068], [15.60917, 48.40683], [15.60924, 48.40684], [15.6093, 48.40681], [15.60935, 48.40678], [15.60941, 48.40678], [15.60949, 48.4068], [15.60956, 48.40686], [15.60957, 48.40693], [15.61006, 48.40697], [15.61076, 48.40702], [15.61124, 48.40704], [15.61175, 48.40707], [15.61253, 48.40714], [15.61291, 48.40722], [15.61311, 48.4073], [15.6133, 48.40741], [15.61353, 48.40756], [15.61371, 48.40774], [15.6138, 48.40787], [15.61393, 48.40811], [15.61402, 48.40828], [15.61406, 48.40836], [15.61404, 48.40841]], "type": "LineString"}, "properties": {"id": 66, "priority": "1", "stress": "1"}, "type": "Feature"},
{"geometry": {"coordinates": [[15.60405, 48.40979], [15.6041, 48.40975], [15.60423, 48.40973], [15.60428, 48.40971], [15.60443, 48.40958], [15.60476, 48.40932], [15.60492, 48.40942], [15.60499, 48.40949], [15.6054, 48.40972], [15.60574, 48.40992], [15.60567, 48.41006], [15.60553, 48.41027], [15.60543, 48.41044]], "type": "LineString"}, "properties": {"id": 67, "oneway": "yes", "priority": "0", "stress": "2"}, "type": "Feature"},
{"geometry": {"coordinates": [[15.56895, 48.39236], [15.56883, 48.39229], [15.56865, 48.39214], [15.56832, 48.39191], [15.56801, 48.3917], [15.56757, 48.39143], [15.56739, 48.39133], [15.56724, 48.39122]], "type": "LineString"}, "properties": {"id": 68, "priority": "1", "stress": "0"}, "type": "Feature"},
{"geometry": {"coordinates": [[15.60037, 48.40979], [15.6006, 48.40988], [15.60073, 48.40993], [15.601, 48.41004], [15.60104, 48.41006]], "type": "LineString"}, "properties": {"id": 69, "oneway": "yes", "priority": "1", "stress": "0"}, "type": "Feature"},
{"geometry": {"coordinates": [[15.60441, 48.41419], [15.6045, 48.41412], [15.60456, 48.41407], [15.60463, 48.41399], [15.60473, 48.41391], [15.60482, 48.41385], [15.60495, 48.41375], [15.60508, 48.41366], [15.60518, 48.41353], [15.60525, 48.41348]], "type": "LineString"}, "properties": {"id": 70, "oneway": "yes", "priority": "1", "stress": "1"}, "type": "Feature"},
{"geometry": {"coordinates": [[15.55373, 48.38672], [15.55369, 48.38672], [15.55347, 48.38665], [15.55296, 48.38649], [15.55258, 48.38638]], "type": "LineString"}, "properties": {"id": 71, "priority": "0", "stress": "0"}, "type": "Feature"},
{"geometry": {"coordinates": [[15.60205, 48.38372], [15.60253, 48.38394], [15.60349, 48.38443], [15.60428, 48.38482], [15.60451, 48.38482], [15.60518, 48.38459], [15.60561, 48.38437], [15.60627, 48.38412], [15.60711, 48.38384], [15.60814, 48.3835], [15.60891, 48.38322], [15.60945, 48.38303], [15.60965, 48.38296], [15.60992, 48.3829]], "type": "LineString"}, "properties": {"id": 72, "priority": "0", "stress": "1"}, "type": "Feature"},
{"geometry": {"coordinates": [[15.58089, 48.39215], [15.58084, 48.39188], [15.58097, 48.39133], [15.58119, 48.39056], [15.58138, 48.38993], [15.5816, 48.38903], [15.58193, 48.38767], [15.58211, 48.38704], [15.58213, 48.3865], [15.58204, 48.38582], [15.58195, 48.38553]], "type": "LineString"}, "properties": {"id": 73, "priority": "1", "stress": "1"}, "type": "Feature"},
{"geometry": {"coordinates": [[15.5613, 48.38856], [15.56121, 48.38855], [15.561, 48.3885], [15.5607, 48.38843], [15.56032, 48.38835], [15.56014, 48.3883], [15.55952, 48.38801], [15.5587, 48.3876], [15.55839, 48.38746], [15.55781, 48.38731], [15.55631, 48.387], [15.55541, 48.3868], [15.555, 48.38672], [15.55477, 48.38675], [15.55452, 48.38676], [15.55409, 48.38672], [15.554, 48.3867], [15.5538, 48.38663]], "type": "LineString"}, "properties": {"id": 74, "priority": "0", "stress": "1"}, "type": "Feature"},
{"geometry": {"coordinates": [[15.58227, 48.38638], [15.58263, 48.38619], [15.58278, 48.38613], [15.58288, 48.38608], [15.58304, 48.38608], [15.58346, 48.38611], [15.58379, 48.38611], [15.58404, 48.3861], [15.58427, 48.38609], [15.58486, 48.3861], [15.58572, 48.38614], [15.58718, 48.38621]], "type": "LineString"}, "properties": {"id": 75, "priority": "1", "stress": "0"}, "type": "Feature"},
{"geometry": {"coordinates": [[15.60519, 48.41241], [15.60556, 48.41275], [15.60565, 48.41282], [15.60541, 48.41322], [15.60525, 48.41348], [15.60519, 48.41358], [15.60513, 48.41371], [15.60509, 48.4138], [15.60507, 48.41386], [15.60504, 48.41392], [15.605, 48.41412], [15.60502, 48.41416], [15.60509, 48.41418], [15.60515, 48.4142], [15.60524, 48.4142], [15.60535, 48.41418], [15.60542, 48.41408], [15.60558, 48.41387], [15.60568, 48.41381], [15.6058, 48.41378], [15.60591, 48.41376], [15.6062, 48.41374], [15.60642, 48.41376], [15.60657, 48.41381], [15.60671, 48.41392], [15.60696, 48.41412], [15.60711, 48.41421], [15.60736, 48.41433], [15.60766, 48.41444], [15.60881, 48.41486], [15.60889, 48.41492], [15.6089, 48.41498], [15.6089, 48.41504], [15.6088, 48.41509], [15.60868, 48.41509], [15.60851, 48.41508], [15.6083, 48.41503], [15.60797, 48.41494], [15.60789, 48.41493], [15.60778, 48.41495], [15.60772, 48.415], [15.60769, 48.41507], [15.60769, 48.41514], [15.60775, 48.41522], [15.60796, 48.41539], [15.60807, 48.41547], [15.60823, 48.41559], [15.60843, 48.41575], [15.60904, 48.41625], [15.6093, 48.41649], [15.6096, 48.41676], [15.60978, 48.41695], [15.61003, 48.41723], [15.61015, 48.4174], [15.61027, 48.41756], [15.61066, 48.41817], [15.61098, 48.41855], [15.61129, 48.41891], [15.61195, 48.41962], [15.6121, 48.4198], [15.61242, 48.42022], [15.61266, 48.4205], [15.61295, 48.42082], [15.61324, 48.42113], [15.61345, 48.42133], [15.61358, 48.42147], [15.61371, 48.42163], [15.61405, 48.42211], [15.61411, 48.42219], [15.61427, 48.42237], [15.6144, 48.4225], [15.61469, 48.42276], [15.61495, 48.42296], [15.61523, 48.42316], [15.61543, 48.42331], [15.61557, 48.42343], [15.61579, 48.42366], [15.61602, 48.42393], [15.61623, 48.4242], [15.61647, 48.42469], [15.61648, 48.4248], [15.61645, 48.4251], [15.61648, 48.42525], [15.61653, 48.42545], [15.61662, 48.42566], [15.61676, 48.42586], [15.61692, 48.42611], [15.61704, 48.42634], [15.61719, 48.42646], [15.61734, 48.42656], [15.6174, 48.42665], [15.61746, 48.42685], [15.61747, 48.42693], [15.61746, 48.42705], [15.61741, 48.42725], [15.61729, 48.42754], [15.61706, 48.42789], [15.61685, 48.42824], [15.61656, 48.42867], [15.61639, 48.42895], [15.61627, 48.42918], [15.6162, 48.42937], [15.61608, 48.42994], [15.61599, 48.4301], [15.61573, 48.43051], [15.61567, 48.43069], [15.61567, 48.43086], [15.61574, 48.43131], [15.61586, 48.43183], [15.61598, 48.43232], [15.61622, 48.43315], [15.61652, 48.43454], [15.61667, 48.43484], [15.617, 48.43584], [15.61742, 48.43648]], "type": "LineString"}, "properties": {"id": 76, "priority": "0", "steep": "yes", "stress": "2"}, "type": "Feature"},
{"geometry": {"coordinates": [[15.57941, 48.39287], [15.57948, 48.39277], [15.57978, 48.39262], [15.58025, 48.39241], [15.58089, 48.39215], [15.58124, 48.39193], [15.58162, 48.39175], [15.58189, 48.39166], [15.58226, 48.39159], [15.58313, 48.39166], [15.58347, 48.39168], [15.58397, 48.39168], [15.58442, 48.39163], [15.58485, 48.39156], [15.58542, 48.39148], [15.58603, 48.39145], [15.58669, 48.39139], [15.58743, 48.39128], [15.58804, 48.39115], [15.58829, 48.39109]], "type": "LineString"}, "properties": {"id": 77, "priority": "0", "stress": "1"}, "type": "Feature"},
{"geometry": {"coordinates": [[15.61039, 48.38526], [15.61036, 48.38516], [15.61034, 48.38508], [15.61028, 48.38474], [15.6102, 48.38424], [15.61012, 48.38385], [15.61005, 48.38353], [15.60998, 48.38319], [15.60994, 48.383], [15.60992, 48.3829], [15.60988, 48.38275], [15.60979, 48.38221], [15.60973, 48.38167], [15.60968, 48.38127], [15.60965, 48.38088], [15.60962, 48.38054], [15.60958, 48.38013], [15.6096, 48.37996], [15.6097, 48.37978], [15.60978, 48.37964], [15.6098, 48.37952]], "type": "LineString"}, "properties": {"id": 78, "priority": "0", "stress": "2"}, "type": "Feature"},
{"geometry": {"coordinates": [[15.59789, 48.38766], [15.5978, 48.38768], [15.59772, 48.38749], [15.59764, 48.38727], [15.59751, 48.387], [15.59734, 48.38673], [15.59721, 48.38662], [15.59707, 48.38659], [15.59691, 48.3866], [15.59642, 48.38683], [15.59583, 48.38714], [15.59486, 48.38762], [15.59443, 48.38783], [15.59408, 48.38804], [15.59363, 48.38832], [15.59326, 48.38865], [15.5929, 48.38898], [15.59263, 48.38925], [15.59218, 48.38961], [15.59177, 48.38987], [15.59129, 48.39012], [15.59081, 48.39035]], "type": "LineString"}, "properties": {"id": 79, "priority": "0", "stress": "2"}, "type": "Feature"},
{"geometry": {"coordinates": [[15.62926, 48.41855], [15.62938, 48.41829], [15.62942, 48.41797], [15.62931, 48.41774], [15.62909, 48.41745], [15.62906, 48.41728], [15.62914, 48.41715], [15.62924, 48.4171], [15.62946, 48.41702], [15.62961, 48.41699], [15.62999, 48.41692], [15.63018, 48.41689], [15.63061, 48.41676], [15.63145, 48.41649], [15.63191, 48.41634], [15.63235, 48.41619], [15.63291, 48.41603], [15.63342, 48.4159], [15.63375, 48.41584], [15.6338, 48.41583], [15.63404, 48.41581], [15.63445, 48.41581], [15.63493, 48.41589]], "type": "LineString"}, "properties": {"id": 80, "priority": "1", "stress": "2"}, "type": "Feature"},
{"geometry": {"coordinates": [[15.68774, 48.38212], [15.68726, 48.38187], [15.68696, 48.38174], [15.68643, 48.38148], [15.68598, 48.38127], [15.68506, 48.38092], [15.68485, 48.38089], [15.68298, 48.38067], [15.68002, 48.38023], [15.67922, 48.38009], [15.67721, 48.37975], [15.67652, 48.37963], [15.67519, 48.37943], [15.67393, 48.3793], [15.67353, 48.37926], [15.67294, 48.37925], [15.67223, 48.37929], [15.67139, 48.37934], [15.67098, 48.37938], [15.67006, 48.37949], [15.66954, 48.37957], [15.66911, 48.37965], [15.66838, 48.37978], [15.66715, 48.38006], [15.66638, 48.38029], [15.66559, 48.38052], [15.66462, 48.38087], [15.66359, 48.38131], [15.66263, 48.38179], [15.66155, 48.38241], [15.66052, 48.38306], [15.65974, 48.38362], [15.65918, 48.38405], [15.65419, 48.38841], [15.6496, 48.39282], [15.64749, 48.39468], [15.64697, 48.39513], [15.64601, 48.39584], [15.64564, 48.39609], [15.64434, 48.39683], [15.6442, 48.39693], [15.64387, 48.39728], [15.64333, 48.39753], [15.64283, 48.39774], [15.64201, 48.39807], [15.63983, 48.39886], [15.63711, 48.39968], [15.63581, 48.40003], [15.63465, 48.40031], [15.63314, 48.40064], [15.63263, 48.40072], [15.63242, 48.40074], [15.63173, 48.40076], [15.63111, 48.40086], [15.63088, 48.40086], [15.63069, 48.40083]], "type": "LineString"}, "properties": {"id": 81, "priority": "0", "stress": "0"}, "type": "Feature"},
{"geometry": {"coordinates": [[15.60107, 48.41007], [15.60108, 48.41009], [15.60113, 48.41014], [15.60124, 48.4102], [15.60145, 48.41034], [15.60158, 48.41042], [15.60176, 48.41055], [15.60191, 48.41065], [15.60218, 48.4108], [15.6025, 48.41097], [15.60266, 48.41105], [15.60311, 48.41125], [15.60356, 48.41143]], "type": "LineString"}, "properties": {"id": 82, "oneway": "yes", "priority": "1", "stress": "1"}, "type": "Feature"},
{"geometry": {"coordinates": [[15.57489, 48.39259], [15.57489, 48.39255], [15.57493, 48.39249], [15.57497, 48.39244], [15.57505, 48.39233], [15.57519, 48.39208], [15.5753, 48.39185], [15.57534, 48.39175], [15.57551, 48.39139], [15.57583, 48.39068], [15.57598, 48.39038], [15.57608, 48.39013], [15.5761, 48.38991], [15.57619, 48.38968], [15.57637, 48.38923], [15.57647, 48.38912], [15.57672, 48.38831], [15.57692, 48.38742], [15.57697, 48.38673], [15.5768, 48.38561], [15.57676, 48.38549]], "type": "LineString"}, "properties": {"id": 83, "priority": "1", "stress": "1"}, "type": "Feature"},
{"geometry": {"coordinates": [[15.57787, 48.41175], [15.578, 48.4116], [15.57817, 48.41142], [15.57824, 48.41131], [15.57827, 48.41119], [15.57838, 48.41113], [15.57842, 48.41104], [15.57845, 48.41092], [15.5785, 48.41083], [15.57855, 48.41077], [15.57865, 48.41067], [15.57878, 48.41058], [15.57885, 48.41052], [15.57894, 48.41046], [15.57924, 48.41029], [15.5794, 48.4102], [15.57963, 48.4101], [15.57986, 48.41001], [15.58009, 48.40994], [15.58038, 48.40987], [15.58059, 48.40985], [15.58108, 48.4098], [15.5812, 48.40979], [15.58159, 48.40973], [15.58171, 48.40973], [15.58199, 48.40982], [15.58226, 48.40993], [15.58239, 48.40996], [15.58271, 48.41], [15.58295, 48.40999], [15.58324, 48.40995], [15.5835, 48.40989], [15.58371, 48.40988], [15.58407, 48.40986], [15.5842, 48.40983], [15.58442, 48.40979], [15.58463, 48.40977], [15.58513, 48.40974], [15.58552, 48.40973], [15.58581, 48.40969], [15.58633, 48.40962], [15.58678, 48.40954], [15.58691, 48.40953], [15.58722, 48.40951], [15.58746, 48.40948], [15.58763, 48.40944], [15.58778, 48.40939], [15.58782, 48.40936]], "type": "LineString"}, "properties": {"id": 84, "priority": "1", "steep": "yes", "stress": "1"}, "type": "Feature"},
{"geometry": {"coordinates": [[15.61404, 48.40841], [15.61444, 48.40846], [15.61491, 48.40861], [15.61546, 48.40885], [15.61592, 48.40914], [15.61609, 48.40928], [15.61621, 48.40947], [15.61626, 48.40957], [15.61633, 48.40978], [15.61635, 48.40989], [15.61636, 48.40997], [15.6164, 48.4102]], "type": "LineString"}, "properties": {"id": 85, "oneway": "yes", "priority": "1", "stress": "2"}, "type": "Feature"},
{"geometry": {"coordinates": [[15.59876, 48.40909], [15.59879, 48.4091], [15.59897, 48.40918], [15.59918, 48.40927], [15.59928, 48.40931], [15.59936, 48.40934], [15.59958, 48.40944], [15.59993, 48.40961], [15.60033, 48.40978]], "type": "LineString"}, "properties": {"id": 86, "oneway": "yes", "priority": "1", "stress": "1"}, "type": "Feature"},
{"geometry": {"coordinates": [[15.57666, 48.3949], [15.57657, 48.39456], [15.5765, 48.3942], [15.57645, 48.39384], [15.57656, 48.39363]], "type": "LineString"}, "properties": {"id": 87, "priority": "0", "stress": "0"}, "type": "Feature"},
{"geometry": {"coordinates": [[15.57657, 48.39505], [15.57665, 48.3951], [15.57672, 48.39522], [15.57655, 48.39556]], "type": "LineString"}, "properties": {"id": 88, "priority": "0", "stress": "0"}, "type": "Feature"},
{"geometry": {"coordinates": [[15.61965, 48.41222], [15.61966, 48.41224], [15.61977, 48.41235], [15.61991, 48.41251], [15.6201, 48.41267], [15.62029, 48.41284], [15.62066, 48.41311], [15.62126, 48.41358], [15.62162, 48.41384], [15.62186, 48.414], [15.62189, 48.41401]], "type": "LineString"}, "properties": {"id": 89, "oneway": "yes", "priority": "1", "stress": "1"}, "type": "Feature"},
{"geometry": {"coordinates": [[15.60174, 48.40934], [15.60169, 48.40936], [15.60161, 48.40945], [15.60152, 48.40956], [15.60145, 48.4096], [15.60133, 48.40975], [15.60107, 48.41007], [15.60104, 48.41006]], "type": "LineString"}, "properties": {"id": 90, "priority": "1", "stress": "1"}, "type": "Feature"},
{"geometry": {"coordinates": [[15.61234, 48.39849], [15.61204, 48.39802], [15.61198, 48.39754], [15.61192, 48.39704], [15.61164, 48.39649], [15.61101, 48.39492], [15.61082, 48.39423], [15.6105, 48.39265], [15.61041, 48.39214], [15.6102, 48.39136], [15.61016, 48.39046], [15.61028, 48.39006]], "type": "LineString"}, "properties": {"id": 91, "priority": "0", "stress": "0"}, "type": "Feature"},
{"geometry": {"coordinates": [[15.58642, 48.39484], [15.58646, 48.39484]], "type": "LineString"}, "properties": {"id": 92}, "type": "Feature"},
{"geometry": {"coordinates": [[15.62055, 48.41166], [15.62062, 48.41166], [15.62069, 48.41166], [15.6208, 48.41167], [15.62108, 48.41172], [15.62139, 48.41177], [15.62148, 48.41179], [15.62165, 48.41182], [15.62192, 48.41187]], "type": "LineString"}, "properties": {"id": 93, "priority": "1", "stress": "1"}, "type": "Feature"},
{"geometry": {"coordinates": [[15.58614, 48.39487], [15.58642, 48.39484], [15.58646, 48.39484], [15.58705, 48.39478], [15.5877, 48.39477], [15.58871, 48.39475], [15.5895, 48.3947], [15.59087, 48.39457], [15.59147, 48.3945], [15.5923, 48.3944], [15.5932, 48.39431], [15.59477, 48.39413], [15.59548, 48.39392], [15.59565, 48.39376], [15.59614, 48.39344], [15.5964, 48.39332], [15.59668, 48.39334], [15.59728, 48.39364], [15.59756, 48.39368], [15.59808, 48.39362], [15.59831, 48.39351]], "type": "LineString"}, "properties": {"id": 94, "priority": "1", "stress": "1"}, "type": "Feature"},
{"geometry": {"coordinates": [[15.62009, 48.41631], [15.62028, 48.41604], [15.62045, 48.41583], [15.62066, 48.41551], [15.62078, 48.41534], [15.62104, 48.41505], [15.62132, 48.41476], [15.62144, 48.41459], [15.62162, 48.41436], [15.62186, 48.41408], [15.62201, 48.41394], [15.62212, 48.41382], [15.62223, 48.41361], [15.62257, 48.41293], [15.62327, 48.41203], [15.62337, 48.41202], [15.62349, 48.41202], [15.62406, 48.41207], [15.62519, 48.41216]], "type": "LineString"}, "properties": {"id": 95, "priority": "0", "stress": "2"}, "type": "Feature"},
{"geometry": {"coordinates": [[15.62336, 48.40769], [15.62365, 48.40761], [15.62447, 48.4074], [15.62466, 48.40735], [15.62477, 48.40735], [15.62501, 48.40735], [15.62527, 48.40735], [15.62536, 48.40737], [15.62542, 48.40743], [15.62545, 48.40748], [15.62553, 48.40791], [15.62551, 48.40794], [15.62547, 48.40792], [15.62527, 48.40752], [15.62523, 48.40727], [15.6252, 48.4071], [15.62517, 48.40665], [15.62511, 48.40566], [15.6251, 48.40507], [15.62506, 48.40405], [15.62504, 48.40356], [15.62501, 48.40229], [15.62498, 48.40127], [15.62494, 48.40011], [15.62491, 48.39873], [15.62496, 48.39825], [15.62499, 48.39807], [15.62499, 48.39805], [15.62504, 48.39805], [15.62526, 48.39805], [15.62526, 48.39808], [15.62504, 48.39808], [15.62503, 48.39799], [15.62503, 48.39796], [15.62508, 48.39795]], "type": "LineString"}, "properties": {"id": 96, "priority": "0", "stress": "2"}, "type": "Feature"},
{"geometry": {"coordinates": [[15.61524, 48.40992], [15.61525, 48.40992], [15.61532, 48.40992], [15.61573, 48.40991], [15.61635, 48.40989]], "type": "LineString"}, "properties": {"id": 97, "oneway": "yes", "priority": "1", "stress": "2"}, "type": "Feature"},
{"geometry": {"coordinates": [[15.60434, 48.41414], [15.60433, 48.41404], [15.60434, 48.41393], [15.60435, 48.41383], [15.60436, 48.41376], [15.60438, 48.41363], [15.60441, 48.41356], [15.60452, 48.41334], [15.60468, 48.41314], [15.60486, 48.41295], [15.60504, 48.41282], [15.60529, 48.41265], [15.60549, 48.41253], [15.60594, 48.41227], [15.6063, 48.41206], [15.60684, 48.41173], [15.60724, 48.41149], [15.60751, 48.41133], [15.60796, 48.41105], [15.60812, 48.41096], [15.60828, 48.41086], [15.60851, 48.41073], [15.60866, 48.41065], [15.60892, 48.41059], [15.60922, 48.41052], [15.60967, 48.41043], [15.61, 48.41036], [15.61042, 48.41029], [15.61076, 48.41022], [15.61105, 48.41018], [15.61143, 48.41013], [15.61168, 48.41011], [15.61201, 48.41011], [15.61221, 48.41012], [15.61261, 48.41016], [15.61277, 48.41018], [15.61309, 48.41026], [15.61351, 48.4104], [15.6137, 48.41045], [15.61394, 48.41051], [15.61416, 48.41056], [15.61439, 48.41059], [15.61466, 48.41061], [15.61523, 48.41062], [15.61585, 48.41061], [15.61641, 48.41059], [15.61658, 48.41059], [15.61671, 48.41058], [15.61751, 48.41056], [15.61801, 48.41056], [15.61818, 48.41057], [15.61857, 48.41063], [15.61893, 48.41069], [15.61915, 48.41074], [15.61932, 48.4108], [15.61954, 48.41088], [15.61968, 48.41091], [15.61987, 48.41092], [15.62002, 48.41093], [15.62038, 48.41093], [15.62056, 48.41093], [15.62201, 48.41076], [15.62319, 48.41062], [15.62438, 48.41045], [15.62494, 48.41037], [15.62541, 48.4103], [15.62553, 48.41029], [15.62574, 48.41029], [15.62625, 48.41032], [15.62705, 48.41039], [15.62799, 48.41047]], "type": "LineString"}, "properties": {"id": 98, "priority": "0", "stress": "0"}, "type": "Feature"},
{"geometry": {"coordinates": [[15.609, 48.40672], [15.60909, 48.40632], [15.60914, 48.40615], [15.60919, 48.40601], [15.6092, 48.40599]], "type": "LineString"}, "properties": {"id": 99, "priority": "0", "stress": "1"}, "type": "Feature"},
{"geometry": {"coordinates": [[15.59605, 48.40928], [15.59608, 48.40928], [15.59616, 48.4092], [15.5962, 48.40916], [15.59637, 48.40898], [15.59646, 48.40889], [15.59666, 48.40867], [15.59683, 48.40849], [15.59696, 48.40835], [15.59742, 48.40786], [15.59756, 48.40772]], "type": "LineString"}, "properties": {"id": 100, "priority": "1", "stress": "2"}, "type": "Feature"},
{"geometry": {"coordinates": [[15.58403, 48.39428], [15.58429, 48.39436]], "type": "LineString"}, "properties": {"id": 101}, "type": "Feature"},
{"geometry": {"coordinates": [[15.57223, 48.39408], [15.57215, 48.39401], [15.57185, 48.39395], [15.57148, 48.39381], [15.57096, 48.39359], [15.57043, 48.39333], [15.56994, 48.39307], [15.56959, 48.39285], [15.56911, 48.39249], [15.56895, 48.39236], [15.56883, 48.39234], [15.56865, 48.39244], [15.5685, 48.39255], [15.56691, 48.39193], [15.56444, 48.39093], [15.56435, 48.39086], [15.56437, 48.39079], [15.5645, 48.39064], [15.56486, 48.39027], [15.56493, 48.3902], [15.56493, 48.39012], [15.56492, 48.39009], [15.56488, 48.39006], [15.56444, 48.38984], [15.56434, 48.38978], [15.5643, 48.38974], [15.56431, 48.38969], [15.56432, 48.38964], [15.56427, 48.3896], [15.56394, 48.38948], [15.56361, 48.3894], [15.56328, 48.38933], [15.56291, 48.38927], [15.56256, 48.38918], [15.56234, 48.38908], [15.56209, 48.38896], [15.56153, 48.38866], [15.56149, 48.38864], [15.56133, 48.38857], [15.5613, 48.38856]], "type": "LineString"}, "properties": {"id": 102, "priority": "0", "stress": "0"}, "type": "Feature"},
{"geometry": {"coordinates": [[15.60707, 48.41109], [15.60731, 48.41127], [15.60771, 48.41159], [15.60782, 48.41163], [15.60843, 48.41185], [15.60947, 48.41218], [15.61022, 48.41243], [15.61047, 48.41246], [15.61081, 48.41265], [15.61096, 48.41275], [15.61121, 48.41304], [15.61133, 48.41327], [15.61152, 48.41346], [15.61168, 48.41358], [15.61205, 48.41375], [15.61262, 48.41394], [15.61298, 48.41405], [15.61327, 48.4141], [15.61366, 48.41421], [15.61426, 48.41436], [15.61536, 48.41469], [15.61597, 48.41487], [15.61612, 48.41491], [15.61677, 48.41514], [15.6171, 48.41526], [15.61794, 48.41556], [15.61843, 48.41573], [15.61895, 48.41593], [15.61934, 48.41606], [15.62003, 48.41628]], "type": "LineString"}, "properties": {"id": 103, "oneway": "yes", "priority": "0", "stress": "1"}, "type": "Feature"},
{"geometry": {"coordinates": [[15.6286, 48.41262], [15.62879, 48.41265], [15.62892, 48.41267], [15.62896, 48.41267], [15.62902, 48.41261], [15.62901, 48.41254], [15.6291, 48.41253], [15.62916, 48.41257], [15.62915, 48.41264], [15.62905, 48.41285]], "type": "LineString"}, "properties": {"id": 104, "priority": "1", "stress": "2"}, "type": "Feature"},
{"geometry": {"coordinates": [[15.62914, 48.4129], [15.62957, 48.41297], [15.6305, 48.41311], [15.63158, 48.41329], [15.63265, 48.41344], [15.63316, 48.41341], [15.63347, 48.41337], [15.63387, 48.41342], [15.63521, 48.41362]], "type": "LineString"}, "properties": {"id": 105, "priority": "1", "stress": "0"}, "type": "Feature"},
{"geometry": {"coordinates": [[15.62003, 48.41628], [15.61992, 48.41643], [15.61979, 48.41636], [15.61903, 48.41611], [15.61881, 48.41603], [15.61867, 48.41597], [15.61858, 48.41593], [15.61797, 48.41571], [15.61736, 48.4155], [15.61617, 48.41507], [15.61606, 48.41504], [15.6159, 48.41499], [15.61574, 48.41494], [15.6156, 48.41489], [15.61448, 48.41456], [15.61399, 48.41443], [15.61326, 48.41425], [15.61209, 48.41387], [15.61194, 48.41382], [15.61158, 48.41371], [15.61122, 48.41342], [15.61108, 48.4132], [15.61093, 48.41296], [15.61068, 48.41275], [15.61047, 48.41264], [15.61009, 48.41252], [15.60913, 48.41221], [15.60818, 48.41191], [15.60777, 48.41173], [15.60752, 48.41161], [15.60718, 48.41136], [15.60704, 48.41128], [15.60685, 48.41116]], "type": "LineString"}, "properties": {"id": 106, "oneway": "yes", "priority": "0", "stress": "1"}, "type": "Feature"},
{"geometry": {"coordinates": [[15.63493, 48.41589], [15.63496, 48.4158], [15.63506, 48.41571], [15.63559, 48.41567], [15.63624, 48.41563], [15.63688, 48.41557], [15.63858, 48.41553], [15.63912, 48.41554], [15.6406, 48.41566], [15.64161, 48.4157], [15.64183, 48.4157], [15.64228, 48.4159], [15.64249, 48.41609], [15.6431, 48.41624], [15.64329, 48.41628]], "type": "LineString"}, "properties": {"id": 107, "priority": "1", "stress": "1"}, "type": "Feature"},
{"geometry": {"coordinates": [[15.56724, 48.39122], [15.56713, 48.39117], [15.56689, 48.39103], [15.56671, 48.39093], [15.56634, 48.39073], [15.56623, 48.39067], [15.56599, 48.39054], [15.56589, 48.39048], [15.56567, 48.39039], [15.56492, 48.39009]], "type": "LineString"}, "properties": {"id": 108, "priority": "1", "stress": "0", "unpaved": "yes"}, "type": "Feature"},
{"geometry": {"coordinates": [[15.60006, 48.42135], [15.60012, 48.42134], [15.60033, 48.4213], [15.60047, 48.42128], [15.60074, 48.42122], [15.60096, 48.42116], [15.60107, 48.42109], [15.60122, 48.42099], [15.60134, 48.4209], [15.60147, 48.42077], [15.60163, 48.42059], [15.60181, 48.42034], [15.60189, 48.42024], [15.60203, 48.42002], [15.60209, 48.41991], [15.60216, 48.41979], [15.60219, 48.41962], [15.60226, 48.41951], [15.60244, 48.4192], [15.60253, 48.41905], [15.60266, 48.41886], [15.60277, 48.41871], [15.60286, 48.4186], [15.60294, 48.41849], [15.60297, 48.41843], [15.60299, 48.41836], [15.60301, 48.41826], [15.60301, 48.41805], [15.60298, 48.41802], [15.60296, 48.41797], [15.6029, 48.41791], [15.60279, 48.41779], [15.60248, 48.41754], [15.60241, 48.41746], [15.6023, 48.41732], [15.60224, 48.41723], [15.60223, 48.41713], [15.60234, 48.41713], [15.60239, 48.41713], [15.60245, 48.4171], [15.60248, 48.41706], [15.60249, 48.41703], [15.60251, 48.41698], [15.60254, 48.41684], [15.60259, 48.41668], [15.60262, 48.41659], [15.60269, 48.41649], [15.60279, 48.41634], [15.60296, 48.41615], [15.60301, 48.4161], [15.60324, 48.41595], [15.60345, 48.41584], [15.60356, 48.41578], [15.60367, 48.41573], [15.6039, 48.41566], [15.60399, 48.41563], [15.60421, 48.41553], [15.60447, 48.41537], [15.60456, 48.41529], [15.60461, 48.41525], [15.60461, 48.41515], [15.60456, 48.41498], [15.6045, 48.41485], [15.60447, 48.41476], [15.6044, 48.41463], [15.60439, 48.41451], [15.60436, 48.41427], [15.60441, 48.41419]], "type": "LineString"}, "properties": {"id": 109, "priority": "0", "stress": "1"}, "type": "Feature"},
{"geometry": {"coordinates": [[15.59691, 48.3866], [15.59711, 48.38648], [15.59739, 48.3863], [15.59765, 48.38615], [15.59816, 48.38583], [15.59854, 48.38559], [15.59883, 48.38544], [15.60006, 48.38477], [15.60044, 48.38457], [15.60097, 48.38427], [15.60192, 48.38379], [15.60205, 48.38372], [15.60412, 48.38262], [15.60452, 48.38242], [15.6048, 48.38229], [15.60504, 48.38218], [15.60546, 48.382], [15.60611, 48.38173], [15.6066, 48.3815], [15.60774, 48.38094], [15.60825, 48.38068], [15.60889, 48.38027], [15.60954, 48.3797], [15.6098, 48.37952]], "type": "LineString"}, "properties": {"id": 110, "priority": "0", "stress": "2"}, "type": "Feature"},
{"geometry": {"coordinates": [[15.61275, 48.39841], [15.61271, 48.39842], [15.61269, 48.39845], [15.61266, 48.39849], [15.61298, 48.39891], [15.61298, 48.39893], [15.61295, 48.39891], [15.61276, 48.39878], [15.61267, 48.39871], [15.61237, 48.39851], [15.61234, 48.39849]], "type": "LineString"}, "properties": {"id": 111, "priority": "0", "stress": "2"}, "type": "Feature"},
{"geometry": {"coordinates": [[15.68887, 48.38099], [15.68884, 48.3811], [15.68881, 48.38128], [15.68875, 48.38139], [15.68831, 48.38181], [15.68788, 48.38219]], "type": "LineString"}, "properties": {"id": 112, "priority": "0", "stress": "0"}, "type": "Feature"},
{"geometry": {"coordinates": [[15.58295, 48.39802], [15.5825, 48.39793], [15.58168, 48.39761], [15.58158, 48.39758], [15.58149, 48.39759], [15.58134, 48.3977], [15.58126, 48.39773], [15.58115, 48.39774], [15.58046, 48.39757], [15.57853, 48.39706], [15.57798, 48.39689], [15.57774, 48.39679], [15.5775, 48.39672], [15.57684, 48.39661], [15.57626, 48.39643], [15.57484, 48.39587], [15.57351, 48.39522], [15.57309, 48.39502], [15.57321, 48.39493], [15.57353, 48.3947]], "type": "LineString"}, "properties": {"id": 113, "priority": "0", "stress": "0"}, "type": "Feature"}]}